{"type": "FeatureCollection", "features": [ {"type": "Feature", "properties": {"norad_id": 66525, "name": "STARLINK-35975", "group": "last-30-days", "lat": 33.52034291441997, "lon": 165.14657121712983, "alt_km": 439.4775343322408, "timestamp": "2025-12-16T19:34:23.016186+00:00", "meta": {"OBJECT_NAME": "STARLINK-35975", "OBJECT_ID": "2025-265K", "EPOCH": "2025-12-15T22:00:01.999584", "MEAN_MOTION": 15.40689813, "ECCENTRICITY": 0.00011669, "INCLINATION": 43.0008, "RA_OF_ASC_NODE": 35.6289, "ARG_OF_PERICENTER": 300.0272, "MEAN_ANOMALY": 234.395, "EPHEMERIS_TYPE": 0, "CLASSIFICATION_TYPE": "U", "NORAD_CAT_ID": 66525, "ELEMENT_SET_NO": 999, "REV_AT_EPOCH": 550, "BSTAR": 0.00022575097, "MEAN_MOTION_DOT": 9.135e-05, "MEAN_MOTION_DDOT": 0}, "tle": {"line1": "1 66525U 25265K   25349.91668981  .00009135  00000+0  22575-3 0  9996", "line2": "2 66525  43.0008  35.6289 0001166 300.0272 234.3950 15.40689813  5503"}}, "geometry": {"type": "Point", "coordinates": [165.14657121712983, 33.52034291441997]}}, {"type": "Feature", "properties": {"norad_id": 66526, "name": "STARLINK-35932", "group": "last-30-days", "lat": -41.846214677482884, "lon": -75.92068272714151, "alt_km": 415.0142746613892, "timestamp": "2025-12-16T19:34:23.016198+00:00", "meta": {"OBJECT_NAME": "STARLINK-35932", "OBJECT_ID": "2025-265L", "EPOCH": "2025-12-14T10:49:31.784448", "MEAN_MOTION": 15.50621032, "ECCENTRICITY": 0.00017397, "INCLINATION": 43.0001, "RA_OF_ASC_NODE": 43.9653, "ARG_OF_PERICENTER": 227.2965, "MEAN_ANOMALY": 132.7749, "EPHEMERIS_TYPE": 0, "CLASSIFICATION_TYPE": "U", "NORAD_CAT_ID": 66526, "ELEMENT_SET_NO": 999, "REV_AT_EPOCH": 402, "BSTAR": 0.0026007534, "MEAN_MOTION_DOT": 0.00155535, "MEAN_MOTION_DDOT": 0}, "tle": {"line1": "1 66526U 25265L   25348.45106232  .00155535  00000+0  26008-2 0  9991", "line2": "2 66526  43.0001  43.9653 0001739 227.2965 132.7749 15.50621032  4022"}}, "geometry": {"type": "Point", "coordinates": [-75.92068272714151, -41.846214677482884]}}, {"type": "Feature", "properties": {"norad_id": 66527, "name": "STARLINK-35935", "group": "last-30-days", "lat": -41.790181741691164, "lon": -76.30845466302316, "alt_km": 416.350728716714, "timestamp": "2025-12-16T19:34:23.016208+00:00", "meta": {"OBJECT_NAME": "STARLINK-35935", "OBJECT_ID": "2025-265M", "EPOCH": "2025-12-15T13:05:53.883456", "MEAN_MOTION": 15.50717657, "ECCENTRICITY": 0.00013255, "INCLINATION": 43.0008, "RA_OF_ASC_NODE": 37.5593, "ARG_OF_PERICENTER": 259.6498, "MEAN_ANOMALY": 100.4213, "EPHEMERIS_TYPE": 0, "CLASSIFICATION_TYPE": "U", "NORAD_CAT_ID": 66527, "ELEMENT_SET_NO": 999, "REV_AT_EPOCH": 419, "BSTAR": 0.0016714965, "MEAN_MOTION_DOT": 0.00099462, "MEAN_MOTION_DDOT": 0}, "tle": {"line1": "1 66527U 25265M   25349.54576254  .00099462  00000+0  16715-2 0  9998", "line2": "2 66527  43.0008  37.5593 0001325 259.6498 100.4213 15.50717657  4198"}}, "geometry": {"type": "Point", "coordinates": [-76.30845466302316, -41.790181741691164]}}, {"type": "Feature", "properties": {"norad_id": 66528, "name": "STARLINK-35928", "group": "last-30-days", "lat": -41.99951927327219, "lon": -74.82254934889835, "alt_km": 416.25759875261156, "timestamp": "2025-12-16T19:34:23.016219+00:00", "meta": {"OBJECT_NAME": "STARLINK-35928", "OBJECT_ID": "2025-265N", "EPOCH": "2025-12-15T13:05:24.594720", "MEAN_MOTION": 15.50596674, "ECCENTRICITY": 0.00024505, "INCLINATION": 43.0023, "RA_OF_ASC_NODE": 37.5569, "ARG_OF_PERICENTER": 268.8478, "MEAN_ANOMALY": 91.2102, "EPHEMERIS_TYPE": 0, "CLASSIFICATION_TYPE": "U", "NORAD_CAT_ID": 66528, "ELEMENT_SET_NO": 999, "REV_AT_EPOCH": 419, "BSTAR": 0.0011216232, "MEAN_MOTION_DOT": 0.00066061, "MEAN_MOTION_DDOT": 0}, "tle": {"line1": "1 66528U 25265N   25349.54542355  .00066061  00000+0  11216-2 0  9994", "line2": "2 66528  43.0023  37.5569 0002450 268.8478  91.2102 15.50596674  4197"}}, "geometry": {"type": "Point", "coordinates": [-74.82254934889835, -41.99951927327219]}}, {"type": "Feature", "properties": {"norad_id": 66529, "name": "STARLINK-35933", "group": "last-30-days", "lat": 42.96365628337515, "lon": 118.56968451019296, "alt_km": 437.9792512509739, "timestamp": "2025-12-16T19:34:23.016229+00:00", "meta": {"OBJECT_NAME": "STARLINK-35933", "OBJECT_ID": "2025-265P", "EPOCH": "2025-12-15T22:00:01.999584", "MEAN_MOTION": 15.40695505, "ECCENTRICITY": 0.00012222, "INCLINATION": 43.0008, "RA_OF_ASC_NODE": 35.7194, "ARG_OF_PERICENTER": 264.2359, "MEAN_ANOMALY": 232.8542, "EPHEMERIS_TYPE": 0, "CLASSIFICATION_TYPE": "U", "NORAD_CAT_ID": 66529, "ELEMENT_SET_NO": 999, "REV_AT_EPOCH": 550, "BSTAR": 0.00039042237, "MEAN_MOTION_DOT": 0.00016037, "MEAN_MOTION_DDOT": 0}, "tle": {"line1": "1 66529U 25265P   25349.91668981  .00016037  00000+0  39042-3 0  9996", "line2": "2 66529  43.0008  35.7194 0001222 264.2359 232.8542 15.40695505  5508"}}, "geometry": {"type": "Point", "coordinates": [118.56968451019296, 42.96365628337515]}}, {"type": "Feature", "properties": {"norad_id": 66530, "name": "STARLINK-35961", "group": "last-30-days", "lat": 38.71254378924824, "lon": 151.15067082034935, "alt_km": 438.6970746643319, "timestamp": "2025-12-16T19:34:23.016240+00:00", "meta": {"OBJECT_NAME": "STARLINK-35961", "OBJECT_ID": "2025-265Q", "EPOCH": "2025-12-15T22:00:01.999584", "MEAN_MOTION": 15.40694432, "ECCENTRICITY": 0.00013094, "INCLINATION": 43.001, "RA_OF_ASC_NODE": 35.6588, "ARG_OF_PERICENTER": 272.444, "MEAN_ANOMALY": 249.5328, "EPHEMERIS_TYPE": 0, "CLASSIFICATION_TYPE": "U", "NORAD_CAT_ID": 66530, "ELEMENT_SET_NO": 999, "REV_AT_EPOCH": 550, "BSTAR": 0.00026353359, "MEAN_MOTION_DOT": 0.00010718, "MEAN_MOTION_DDOT": 0}, "tle": {"line1": "1 66530U 25265Q   25349.91668981  .00010718  00000+0  26353-3 0  9999", "line2": "2 66530  43.0010  35.6588 0001309 272.4440 249.5328 15.40694432  5502"}}, "geometry": {"type": "Point", "coordinates": [151.15067082034935, 38.71254378924824]}}, {"type": "Feature", "properties": {"norad_id": 66531, "name": "STARLINK-35960", "group": "last-30-days", "lat": 26.94462041869786, "lon": 177.36037059364412, "alt_km": 440.38946936712273, "timestamp": "2025-12-16T19:34:23.016251+00:00", "meta": {"OBJECT_NAME": "STARLINK-35960", "OBJECT_ID": "2025-265R", "EPOCH": "2025-12-15T22:00:01.999584", "MEAN_MOTION": 15.40689176, "ECCENTRICITY": 0.00012609, "INCLINATION": 43.0009, "RA_OF_ASC_NODE": 35.5976, "ARG_OF_PERICENTER": 269.9869, "MEAN_ANOMALY": 276.88, "EPHEMERIS_TYPE": 0, "CLASSIFICATION_TYPE": "U", "NORAD_CAT_ID": 66531, "ELEMENT_SET_NO": 999, "REV_AT_EPOCH": 550, "BSTAR": 0.00019145631, "MEAN_MOTION_DOT": 7.699e-05, "MEAN_MOTION_DDOT": 0}, "tle": {"line1": "1 66531U 25265R   25349.91668981  .00007699  00000+0  19146-3 0  9996", "line2": "2 66531  43.0009  35.5976 0001260 269.9869 276.8800 15.40689176  5500"}}, "geometry": {"type": "Point", "coordinates": [177.36037059364412, 26.94462041869786]}}, {"type": "Feature", "properties": {"norad_id": 66532, "name": "STARLINK-35914", "group": "last-30-days", "lat": 11.330766832631905, "lon": -162.0607805875637, "alt_km": 442.72746889180326, "timestamp": "2025-12-16T19:34:23.016262+00:00", "meta": {"OBJECT_NAME": "STARLINK-35914", "OBJECT_ID": "2025-265S", "EPOCH": "2025-12-15T22:00:01.999584", "MEAN_MOTION": 15.40697686, "ECCENTRICITY": 0.00015786, "INCLINATION": 43.0008, "RA_OF_ASC_NODE": 35.5372, "ARG_OF_PERICENTER": 277.4399, "MEAN_ANOMALY": 294.2923, "EPHEMERIS_TYPE": 0, "CLASSIFICATION_TYPE": "U", "NORAD_CAT_ID": 66532, "ELEMENT_SET_NO": 999, "REV_AT_EPOCH": 550, "BSTAR": 0.00018986108, "MEAN_MOTION_DOT": 7.635e-05, "MEAN_MOTION_DDOT": 0}, "tle": {"line1": "1 66532U 25265S   25349.91668981  .00007635  00000+0  18986-3 0  9998", "line2": "2 66532  43.0008  35.5372 0001578 277.4399 294.2923 15.40697686  5509"}}, "geometry": {"type": "Point", "coordinates": [-162.0607805875637, 11.330766832631905]}}, {"type": "Feature", "properties": {"norad_id": 66533, "name": "STARLINK-35707", "group": "last-30-days", "lat": -42.47251046424925, "lon": -70.65816945412351, "alt_km": 420.54079346882827, "timestamp": "2025-12-16T19:34:23.016273+00:00", "meta": {"OBJECT_NAME": "STARLINK-35707", "OBJECT_ID": "2025-265T", "EPOCH": "2025-12-15T13:02:43.828512", "MEAN_MOTION": 15.49030729, "ECCENTRICITY": 0.00031573, "INCLINATION": 43.001, "RA_OF_ASC_NODE": 37.5429, "ARG_OF_PERICENTER": 276.559, "MEAN_ANOMALY": 83.491, "EPHEMERIS_TYPE": 0, "CLASSIFICATION_TYPE": "U", "NORAD_CAT_ID": 66533, "ELEMENT_SET_NO": 999, "REV_AT_EPOCH": 419, "BSTAR": 0.00097734741, "MEAN_MOTION_DOT": 0.00054327, "MEAN_MOTION_DDOT": 0}, "tle": {"line1": "1 66533U 25265T   25349.54356283  .00054327  00000+0  97735-3 0  9996", "line2": "2 66533  43.0010  37.5429 0003157 276.5590  83.4910 15.49030729  4192"}}, "geometry": {"type": "Point", "coordinates": [-70.65816945412351, -42.47251046424925]}}, {"type": "Feature", "properties": {"norad_id": 66534, "name": "STARLINK-35976", "group": "last-30-days", "lat": -42.93151348692919, "lon": -63.389875783394096, "alt_km": 422.0769429413476, "timestamp": "2025-12-16T19:34:23.016284+00:00", "meta": {"OBJECT_NAME": "STARLINK-35976", "OBJECT_ID": "2025-265U", "EPOCH": "2025-12-15T09:57:03.123072", "MEAN_MOTION": 15.50050631, "ECCENTRICITY": 0.00060772, "INCLINATION": 43.0051, "RA_OF_ASC_NODE": 38.2938, "ARG_OF_PERICENTER": 127.1063, "MEAN_ANOMALY": 233.0353, "EPHEMERIS_TYPE": 0, "CLASSIFICATION_TYPE": "U", "NORAD_CAT_ID": 66534, "ELEMENT_SET_NO": 999, "REV_AT_EPOCH": 417, "BSTAR": 0.0011426931, "MEAN_MOTION_DOT": 0.00066046, "MEAN_MOTION_DDOT": 0}, "tle": {"line1": "1 66534U 25265U   25349.41461948  .00066046  00000+0  11427-2 0  9992", "line2": "2 66534  43.0051  38.2938 0006077 127.1063 233.0353 15.50050631  4179"}}, "geometry": {"type": "Point", "coordinates": [-63.389875783394096, -42.93151348692919]}}]}